STARLINK-31237          
1 58855U 24019C   24246.36713173  .00001480  00000+0  66413-4 0  9992
2 58855  43.0003 129.1032 0001858 297.6325  62.4337 15.25920993 34510
STARLINK-31244          
1 58856U 24019D   24246.38750018 -.00001004  00000+0 -28582-4 0  9993
2 58856  43.0016 129.2273 0000087 291.5506  68.5335 15.25907234 34518
STARLINK-31216          
1 58857U 24019E   24246.39866799  .00004209  00000+0  17068-3 0  9993
2 58857  43.0029 128.4554 0001438 321.4205  38.6543 15.25908479 34506
STARLINK-31226          
1 58858U 24019F   24246.37842930 -.00001783  00000+0 -58278-4 0  9998
2 58858  43.0071 129.1604 0001633 312.0040  48.0671 15.25940207 34511
STARLINK-31197          
1 58859U 24019G   24246.06923931  .00004374  00000+0  17697-3 0  9992
2 58859  43.0008 131.1461 0000525 253.3207 106.7586 15.25903657 34466
STARLINK-31213          
1 58860U 24019H   24246.41010526 -.00001482  00000+0 -46819-4 0  9998
2 58860  43.0027 129.4215 0001434 291.0669  69.0028 15.25918296 34510
STARLINK-31199          
1 58861U 24019J   24246.38523805 -.00002031  00000+0 -67846-4 0  9998
2 58861  43.0011 129.2106 0000384 274.4192  85.6615 15.25909064 34519
STARLINK-31200          
1 58862U 24019K   24246.56577403 -.00000814  00000+0 -21303-4 0  9997
2 58862  43.0003 127.9924 0001150 296.1126  63.9606 15.25903825 34545
STARLINK-31149          
1 58863U 24019L   24246.09639230  .00002574  00000+0  10815-3 0  9991
2 58863  43.0000 131.3703 0001376 283.5709  76.4989 15.25927932 34463
STARLINK-31242          
1 58864U 24019M   24246.39429194  .00004146  00000+0  16829-3 0  9999
2 58864  42.9962 129.2875 0000551 334.5591  25.5233 15.25897360 34519
STARLINK-31223          
1 58865U 24019N   24246.03758395 -.00004174  00000+0 -14970-3 0  9997
2 58865  42.9961 130.9208 0001115 310.9962  49.0792 15.25934101 34443
STARLINK-31219          
1 58866U 24019P   24246.08508772  .00012483  00000+0  48600-3 0  9992
2 58866  42.9987 131.2851 0001757 286.7634  73.3024 15.25925386 34441
STARLINK-31198          
1 58867U 24019Q   24246.38071019  .00000629  00000+0  33867-4 0  9994
2 58867  43.0018 129.1604 0000399 286.1631  73.9176 15.25904384 34497
STARLINK-31196          
1 58868U 24019R   24246.38295579 -.00000252  00000+0  20834-6 0  9999
2 58868  43.0029 129.1917 0001274 343.6392  16.4418 15.25932690 34495
STARLINK-31203          
1 58869U 24019S   24246.00713041 -.00004263  00000+0 -15323-3 0  9999
2 58869  42.9982 126.3770 0001332 273.6343  86.4356 15.25910179 34510
STARLINK-31201          
1 58870U 24019T   24246.09187104  .00023818  00000+0  91668-3 0  9996
2 58870  42.9980 131.3391 0001682 278.5714  81.4946 15.25936777 34443
STARLINK-31214          
1 58871U 24019U   24246.40783900  .00002112  00000+0  90479-4 0  9992
2 58871  42.9994 129.4033 0001357 289.1840  70.8864 15.25934680 34494
STARLINK-31215          
1 58872U 24019V   24246.40106312  .00004537  00000+0  18318-3 0  9993
2 58872  43.0027 129.3447 0000852  70.8139 289.2804 15.25906344 34493
STARLINK-31177          
1 58873U 24019W   24246.03530899 -.00002244  00000+0 -75897-4 0  9995
2 58873  43.0004 130.8930 0001656 285.6716  74.3952 15.25940665 34461
STARLINK-30945          
1 58874U 24019X   24246.11433835  .00000798  00000+0  40334-4 0  9995
2 58874  43.0003 130.6060 0000739 294.7123  65.3651 15.25927219 34474
STARLINK-31212          
1 58875U 24019Y   24246.54555254  .00003586  00000+0  14695-3 0  9991
2 58875  42.9981 128.7199 0000974 134.6706 225.4225 15.25891389 34518
STARLINK-31306          
1 58876U 24020A   24246.59258527  .00000907  00000+0  38182-4 0  9994
2 58876  53.1619  13.3366 0001407  88.6514 271.4650 15.34212608 34540
STARLINK-31326          
1 58877U 24020B   24246.61069831  .00001247  00000+0  48310-4 0  9998
2 58877  53.1579  12.0224 0001895 112.9226 247.1976 15.34217189 33388
STARLINK-31300          
1 58878U 24020C   24246.58792185 -.00000087  00000+0  85953-5 0  9997
2 58878  53.1596  13.3034 0001609  83.4023 276.7163 15.34216686 33366
STARLINK-31296          
1 58879U 24020D   24246.58357663  .00004625  00000+0  14866-3 0  9990
2 58879  53.1634  13.2745 0001496 100.2233 259.8938 15.34240398 33362
STARLINK-31328          
1 58880U 24020E   24246.60036320  .00003342  00000+0  11065-3 0  9992
2 58880  53.1612   6.8924 0001797  94.4129 265.7079 15.34208918 33453
STARLINK-31260          
1 58881U 24020F   24246.58326134  .00001156  00000+0  45603-4 0  9992
2 58881  53.1610  13.2758 0001455 113.4557 246.6598 15.34216372 33364
STARLINK-31323          
1 58882U 24020G   24246.64407931  .00002669  00000+0  90618-4 0  9991
2 58882  53.1624  12.9447 0001199  75.7297 284.3839 15.34210857 33377
STARLINK-31209          
1 58883U 24020H   24246.64374328  .00005562  00000+0  17663-3 0  9998
2 58883  53.1617  12.9396 0001646  69.1774 290.9405 15.34215596 33374
STARLINK-31315          
1 58884U 24020J   24246.59811568 -.00000378  00000+0  54444-6 0  9997
2 58884  53.1618 349.0893 0001558 106.8195 253.2981 15.39599712 33708
STARLINK-31318          
1 58885U 24020K   24246.59747803 -.00002191  00000+0 -54035-4 0  9998
2 58885  53.1608  12.6447 0001629  89.4469 270.6720 15.34220369 33376
STARLINK-31320          
1 58886U 24020L   24246.63907959  .00001770  00000+0  63844-4 0  9992
2 58886  53.1618  12.9142 0000881  67.2740 292.8355 15.34222039 33374
STARLINK-31321          
1 58887U 24020M   24246.63475565  .00003206  00000+0  10656-3 0  9994
2 58887  53.1608  12.8860 0001287  98.0447 262.0701 15.34226229 34535
STARLINK-30970          
1 58888U 24020N   24246.58335648  .01705635  00000+0  11560-1 0  9995
2 58888  53.1494   1.4120 0018910 339.4863 253.3939 15.71285247  5920
STARLINK-31007          
1 58889U 24020P   24246.63442601  .00002746  00000+0  92901-4 0  9993
2 58889  53.1628  12.8822 0001101  79.8885 280.2241 15.34208330 33370
STARLINK-31230          
1 58890U 24020Q   24246.60579217  .00039004  00000+0  11474-2 0  9997
2 58890  53.1626  12.7280 0001209  56.4694 303.6424 15.34731597 33374
STARLINK-31245          
1 58891U 24020R   24246.51143196 -.00001615  00000+0 -30415-4 0  9998
2 58891  53.1615 335.4160 0001107 102.7168 257.3960 15.39609011 35049
STARLINK-31254          
1 58892U 24020S   24246.61112561  .00003217  00000+0  10692-3 0  9994
2 58892  53.1619  12.7558 0001574 102.6624 257.4555 15.34210502 33377
STARLINK-31255          
1 58893U 24020T   24246.62544038  .00027484  00000+0  82561-3 0  9990
2 58893  53.1624  12.8311 0001680  83.1709 276.9484 15.34245002 33377
STARLINK-31243          
1 58894U 24020U   24246.62510321  .00002550  00000+0  87065-4 0  9991
2 58894  53.1617  12.8273 0001379  86.6938 273.4222 15.34216671 33376
STARLINK-31218          
1 58895U 24020V   24246.36011072  .01233545  00000+0  31879-1 0  9992
2 58895  53.1611  14.0157 0001995 163.5970 196.5098 15.35966280 33332
STARLINK-31221          
1 58896U 24020W   24246.61475137  .00040675  00000+0  11558-2 0  9999
2 58896  53.1618  12.7607 0005851 352.9208   7.1711 15.35787284 33376
STARLINK-31190          
1 58897U 24020X   24246.61578235  .00003288  00000+0  10906-3 0  9999
2 58897  53.1631  12.7664 0001953  99.3282 260.7942 15.34208044 33372
STARLINK-31317          
1 58931U 24027A   24246.60794755  .00010498  00000+0  32326-3 0  9992
2 58931  53.1601 359.0206 0001383 129.6481 230.4644 15.34215196 32482
STARLINK-31378          
1 58932U 24027B   24246.60760721  .00004356  00000+0  14077-3 0  9998
2 58932  53.1622 359.0206 0001150 128.9123 231.1983 15.34214200 32640
STARLINK-31350          
1 58933U 24027C   24246.60294939  .00002877  00000+0  96758-4 0  9995
2 58933  53.1612 358.9871 0000870  98.0712 262.0389 15.34225697 32640
STARLINK-31337          
1 58934U 24027D   24246.60328030  .00036503  00000+0  10910-2 0  9993
2 58934  53.1604 358.9887 0000905  96.3670 263.7435 15.34261840 32642
STARLINK-31362          
1 58935U 24027E   24246.60126155  .00003164  00000+0  11894-3 0  9998
2 58935  53.1616 358.9747 0001378  92.6366 267.4793 15.30190789 32644
STARLINK-31383          
1 58936U 24027F   24246.60019501  .00003288  00000+0  12313-3 0  9999
2 58936  53.1628 358.9725 0001784 104.8501 255.2697 15.30190640 32646
STARLINK-31390          
1 58937U 24027G   24246.59595178  .00007426  00000+0  26253-3 0  9993
2 58937  53.1620 358.9409 0001342  95.3105 264.8049 15.30208229 32642
STARLINK-31377          
1 58938U 24027H   24246.59914798  .00002034  00000+0  80821-4 0  9999
2 58938  53.1594 358.9601 0001886  80.0074 280.1140 15.30190111 32649
STARLINK-31372          
1 58939U 24027J   24246.59280681  .00003014  00000+0  11387-3 0  9996
2 58939  53.1620 358.9224 0001717 101.2472 258.8722 15.30191515 32649
STARLINK-31371          
1 58940U 24027K   24246.59175950  .00002076  00000+0  82237-4 0  9990
2 58940  53.1618 358.9162 0001439  97.4723 262.6442 15.30185018 32648
STARLINK-31345          
1 58941U 24027L   24246.58648625 -.00000535  00000+0 -59299-5 0  9997
2 58941  53.1626 358.8820 0001615 115.5671 244.5497 15.30168085 32642
STARLINK-31354          
1 58942U 24027M   24246.58966018  .00000403  00000+0  25757-4 0  9990
2 58942  53.1613 358.9013 0001996 103.0342 257.0881 15.30167184 32648
STARLINK-31346          
1 58943U 24027N   24246.58331442  .00001935  00000+0  77496-4 0  9996
2 58943  53.1606 358.8644 0001402  93.0820 267.0341 15.30181427 32649
STARLINK-31336          
1 58944U 24027P   24246.59808927  .00001988  00000+0  79282-4 0  9998
2 58944  53.1616 358.9551 0001459  81.1634 278.9532 15.30184989 32630
STARLINK-31359          
1 58945U 24027Q   24246.55979893  .00035252  00000+0  10406-2 0  9998
2 58945  53.1618 357.2796 0001881  95.8098 264.3119 15.34670462 32675
STARLINK-31331          
1 58946U 24027R   24246.57698655  .00005068  00000+0  18321-3 0  9992
2 58946  53.1604 358.8234 0001894 111.5590 248.5612 15.30187682 32644
